OBJECT_NAME,OBJECT_ID,EPOCH,MEAN_MOTION,ECCENTRICITY,INCLINATION,RA_OF_ASC_NODE,ARG_OF_PERICENTER,MEAN_ANOMALY,EPHEMERIS_TYPE,CLASSIFICATION_TYPE,NORAD_CAT_ID,ELEMENT_SET_NO,REV_AT_EPOCH,BSTAR,MEAN_MOTION_DOT,MEAN_MOTION_DDOT
ONEWEB-0302,2021-075S,2026-06-17T10:56:25.198080,13.12443754,.0001959,87.8950,350.6130,99.6863,260.4487,0,U,49091,999,23458,-.10621E-2,-.369E-5,0
ONEWEB-0304,2021-075T,2026-06-17T11:19:48.145728,13.17649277,.0002014,87.9133,5.8135,87.9300,272.2063,0,U,49092,999,23361,.30559E-4,.25E-6,0
ONEWEB-0305,2021-075U,2026-06-17T11:10:05.134080,13.17649156,.0002243,87.9141,5.7992,85.9696,274.1692,0,U,49093,999,23364,-.3194E-4,0,0
ONEWEB-0308,2021-075V,2026-06-17T12:36:26.467776,13.12442938,.0001789,87.8949,350.5912,90.9664,269.1670,0,U,49094,999,23460,-.96377E-3,-.334E-5,0
ONEWEB-0309,2021-075W,2026-06-17T11:14:56.533632,13.17648387,.0001974,87.9133,5.8069,102.9043,257.2309,0,U,49095,999,23361,.5057E-4,.33E-6,0
ONEWEB-0310,2021-075X,2026-06-17T11:08:36.648384,13.12443295,.0001822,87.8939,350.6251,91.6050,268.5288,0,U,49096,999,23522,-.13989E-2,-.491E-5,0
ONEWEB-0311,2021-075Y,2026-06-17T11:24:40.131936,13.17650584,.0002271,87.9134,5.8052,81.6710,278.4679,0,U,49097,999,23366,.77432E-4,.43E-6,0
ONEWEB-0312,2021-075Z,2026-06-17T11:46:32.945376,13.17653145,.0002193,87.9131,5.8128,91.1434,268.9949,0,U,49098,999,23364,-.13501E-3,-.4E-6,0
ONEWEB-0313,2021-075AA,2026-06-17T11:53:37.394880,13.17648516,.0001991,87.9128,5.8177,86.3585,273.7774,0,U,49099,999,23363,-.67137E-4,-.13E-6,0
ONEWEB-0314,2021-075AB,2026-06-17T11:05:14.233920,13.17649045,.0002235,87.9141,5.7969,91.0673,269.0715,0,U,49100,999,23360,.53657E-4,.34E-6,0
ONEWEB-0315,2021-075AC,2026-06-17T12:19:22.226880,13.12442477,.000206,87.8948,350.5793,81.7220,278.4142,0,U,49101,999,23521,.16679E-3,.73E-6,0
ONEWEB-0316,2021-075AD,2026-06-17T11:05:44.543040,13.18687173,.0001911,87.9164,335.4012,91.9212,268.2139,0,U,49102,999,23724,.24885E-4,.23E-6,0
ONEWEB-0317,2021-075AE,2026-06-17T12:24:15.008832,13.12442642,.0001559,87.8949,350.6025,114.4157,245.7134,0,U,49103,999,23523,-.34355E-3,-.111E-5,0
ONEWEB-0318,2021-075AF,2026-06-17T11:00:53.541792,13.18686323,.0001999,87.9171,335.4034,86.7769,273.3592,0,U,49104,999,23720,.32583E-4,.26E-6,0
ONEWEB-0319,2021-075AG,2026-06-17T11:27:05.633856,13.17649417,.0002193,87.9132,5.8102,76.4710,283.6665,0,U,49105,999,23364,.48565E-4,.32E-6,0
ONEWEB-0323,2021-075AH,2026-06-17T11:57:25.289568,13.12443608,.0002299,87.8949,350.5875,82.0505,278.0885,0,U,49106,999,23459,.11027E-2,.409E-5,0
ONEWEB-0329,2021-075AJ,2026-06-17T11:39:14.748768,13.17649099,.0002019,87.9133,5.8091,88.7855,271.3507,0,U,49107,999,23362,-.64457E-4,-.12E-6,0
ONEWEB-0330,2021-075AK,2026-06-17T12:13:23.748960,13.17695999,.0001437,87.9132,5.8249,92.5205,267.6091,0,U,49108,999,23366,.14731E-1,.574E-4,0
ONEWEB-0292,2021-083A,2026-06-17T09:27:30.151008,13.13472204,.0001943,87.8952,320.1969,91.7512,268.3839,0,U,49186,999,23095,.26807E-3,.111E-5,0
ONEWEB-0303,2021-083B,2026-06-17T10:56:01.945248,13.18686876,.0001971,87.9165,335.4028,89.3427,270.7931,0,U,49187,999,23001,-.9627E-4,-.25E-6,0
ONEWEB-0306,2021-083C,2026-06-17T10:41:27.417408,13.18687066,.0001763,87.9170,335.3926,99.7659,260.3672,0,U,49188,999,23005,.1057E-3,.55E-6,0
ONEWEB-0307,2021-083D,2026-06-17T09:18:57.653856,13.13470999,.0001951,87.8955,320.1952,94.5396,265.5956,0,U,49189,999,23095,-.11473E-3,-.29E-6,0
ONEWEB-0320,2021-083E,2026-06-17T11:10:35.387904,13.18686178,.0001827,87.9160,335.4067,94.5032,265.6309,0,U,49190,999,23001,-.17528E-4,.6E-7,0
ONEWEB-0321,2021-083F,2026-06-17T08:27:41.208192,13.20772258,.0001815,87.9196,274.4018,107.4655,252.6677,0,U,49191,999,23685,.56225E-4,.36E-6,0
ONEWEB-0322,2021-083G,2026-06-17T09:12:50.217120,13.13468658,.0001414,87.8952,320.1964,102.2513,257.8774,0,U,49192,999,23094,-.38164E-3,-.127E-5,0
ONEWEB-0324,2021-083H,2026-06-17T10:31:44.580288,13.18685128,.000199,87.9171,335.3994,97.6604,262.4754,0,U,49193,999,23003,.29015E-4,.24E-6,0
ONEWEB-0325,2021-083J,2026-06-17T12:25:52.017024,13.18685753,.000182,87.9162,335.3920,91.0361,269.0980,0,U,49194,999,23005,-.12385E-3,-.36E-6,0
ONEWEB-0326,2021-083K,2026-06-17T10:58:39.548352,13.18685450,.000199,87.9170,335.4019,85.9222,274.2138,0,U,49195,999,23003,.49788E-4,.33E-6,0
ONEWEB-0327,2021-083L,2026-06-17T10:58:15.314880,13.18685365,.0001931,87.9162,335.4062,81.1875,278.9476,0,U,49196,999,23005,-.8138E-5,.1E-6,0
ONEWEB-0328,2021-083M,2026-06-17T10:47:55.760352,13.13470517,.0001962,87.8961,320.1562,99.3194,260.8157,0,U,49197,999,23093,-.72706E-3,-.253E-5,0
ONEWEB-0331,2021-083N,2026-06-17T10:48:44.234208,13.18686944,.0002096,87.9171,335.3970,86.1802,273.9570,0,U,49198,999,23004,.25365E-4,.23E-6,0
ONEWEB-0333,2021-083P,2026-06-17T10:40:36.865632,13.13469808,.0001838,87.8952,320.1834,95.2620,264.8719,0,U,49199,999,23094,-.62894E-3,-.217E-5,0
ONEWEB-0334,2021-083Q,2026-06-17T07:01:31.567008,13.21305472,.0001689,87.9192,274.4247,127.0214,233.1074,0,U,49200,999,23680,-.2228E-1,-.9109E-4,0
ONEWEB-0335,2021-083R,2026-06-17T10:33:18.235296,13.13470464,.0001992,87.8954,320.1814,92.9162,267.2195,0,U,49201,999,23095,-.48993E-3,-.166E-5,0
ONEWEB-0336,2021-083S,2026-06-17T09:51:51.919776,13.13470578,.0002236,87.8952,320.1830,92.6118,267.5267,0,U,49202,999,23094,.92719E-3,.351E-5,0
ONEWEB-0337,2021-083T,2026-06-17T11:55:59.730240,13.13469705,.0002037,87.8952,320.1719,98.4885,261.6475,0,U,49203,999,23095,.79562E-3,.303E-5,0
ONEWEB-0338,2021-083U,2026-06-17T08:15:33.059232,13.20773972,.0001692,87.9185,274.4174,104.2701,255.8620,0,U,49204,999,23683,.11634E-3,.6E-6,0
ONEWEB-0339,2021-083V,2026-06-17T10:18:40.495968,13.13469954,.0001657,87.8953,320.1778,104.7248,255.4065,0,U,49205,999,23092,.13185E-3,.61E-6,0
ONEWEB-0340,2021-083W,2026-06-17T12:18:35.419680,13.18685836,.0001982,87.9171,335.3904,91.4123,268.7236,0,U,49206,999,23001,.92843E-4,.5E-6,0
ONEWEB-0341,2021-083X,2026-06-17T12:28:18.230016,13.18686346,.0002262,87.9164,335.3922,101.9340,258.2046,0,U,49207,999,23003,.34612E-4,.27E-6,0
ONEWEB-0342,2021-083Y,2026-06-17T08:25:15.504096,13.20771097,.0001943,87.9195,274.4041,103.3768,256.7582,0,U,49208,999,23680,-.30033E-4,.1E-7,0
ONEWEB-0343,2021-083Z,2026-06-17T12:40:26.880096,13.18686264,.0001643,87.9167,335.3893,105.5417,254.5896,0,U,49209,999,23008,-.18062E-4,.6E-7,0
ONEWEB-0344,2021-083AA,2026-06-17T10:11:20.890176,13.13471931,.000216,87.8943,320.1931,102.8581,257.2789,0,U,49210,999,23092,.43297E-3,.171E-5,0
ONEWEB-0345,2021-083AB,2026-06-17T09:59:10.043808,13.13471245,.0002067,87.8963,320.1758,102.8171,257.3189,0,U,49211,999,23093,.96716E-3,.366E-5,0
ONEWEB-0346,2021-083AC,2026-06-17T10:46:19.623936,13.18685806,.000231,87.9161,335.4053,80.0163,280.1229,0,U,49212,999,23001,-.27433E-4,.2E-7,0
ONEWEB-0348,2021-083AD,2026-06-17T08:10:42.703392,13.20770575,.0002479,87.9196,274.4100,96.2557,263.8858,0,U,49213,999,23683,.10482E-3,.56E-6,0
ONEWEB-0350,2021-083AE,2026-06-17T10:23:17.523744,13.12942853,.0002107,87.8958,320.1770,99.5544,260.5823,0,U,49214,999,23096,-.14025E-3,-.38E-6,0
ONEWEB-0351,2021-083AF,2026-06-17T08:00:48.332736,13.20770123,.0002049,87.9196,274.4099,125.7409,234.3915,0,U,49215,999,23679,.2407E-3,.111E-5,0
ONEWEB-0352,2021-083AG,2026-06-17T09:44:33.290304,13.13470852,.0001655,87.8954,320.1890,109.5855,250.5453,0,U,49216,999,23105,.84265E-3,.32E-5,0
ONEWEB-0354,2021-083AH,2026-06-17T01:23:26.488608,13.20772812,.0002401,87.9196,274.4640,100.2733,259.8671,0,U,49217,999,23679,-.25149E-4,.3E-7,0
ONEWEB-0355,2021-083AJ,2026-06-17T10:26:11.535072,13.13469825,.0001885,87.8951,320.1843,103.5519,256.5820,0,U,49218,999,23093,-.23206E-3,-.72E-6,0
ONEWEB-0357,2021-083AK,2026-06-16T18:02:14.040096,13.20772588,.0001941,87.9195,274.5191,106.7647,253.3699,0,U,49219,999,23675,-.95522E-4,-.26E-6,0
ONEWEB-0332,2021-090A,2026-06-17T08:54:02.551968,13.14501985,.0001707,87.8963,289.6722,101.7462,258.3859,0,U,49279,999,22760,-.3037E-3,-.1E-5,0
ONEWEB-0347,2021-090B,2026-06-17T08:20:24.641088,13.20770834,.000173,87.9194,274.4085,100.0735,260.0593,0,U,49280,999,23106,.24517E-3,.113E-5,0
ONEWEB-0349,2021-090C,2026-06-17T07:17:22.936416,13.20772591,.0002007,87.9195,274.4178,101.3854,258.7504,0,U,49281,999,22984,.10242E-3,.55E-6,0
ONEWEB-0353,2021-090D,2026-06-17T08:42:38.276064,13.14503276,.0001647,87.8965,289.6692,100.2631,259.8684,0,U,49282,999,22760,-.31267E-3,-.103E-5,0
ONEWEB-0356,2021-090E,2026-06-17T07:14:56.732928,13.20773797,.0002044,87.9195,274.4115,77.3708,282.7654,0,U,49283,999,22984,-.4724E-4,-.6E-7,0
ONEWEB-0358,2021-090F,2026-06-17T08:02:26.477952,13.20237293,.0002113,87.9197,274.4105,95.5785,264.5589,0,U,49284,999,23057,.17879E-3,.85E-6,0
ONEWEB-0359,2021-090G,2026-06-17T07:53:44.089728,13.20773144,.0002288,87.9195,274.4061,99.2066,260.9326,0,U,49285,999,23055,.14975E-3,.74E-6,0
ONEWEB-0360,2021-090H,2026-06-17T07:39:10.253088,13.20775879,.0002119,87.9198,274.4142,102.8253,257.3117,0,U,49286,999,22986,-.21058E-2,-.843E-5,0
ONEWEB-0361,2021-090J,2026-06-17T07:12:31.485024,13.20771365,.000209,87.9196,274.4162,98.2227,261.9143,0,U,49287,999,23031,.14102E-3,.7E-6,0
ONEWEB-0362,2021-090K,2026-06-17T09:42:44.091072,13.19724710,.0001938,87.9168,304.9343,107.0610,253.0735,0,U,49288,999,22694,.22037E-3,.101E-5,0
ONEWEB-0363,2021-090L,2026-06-17T07:34:20.408736,13.20770582,.0002045,87.9194,274.4135,91.1495,268.9873,0,U,49289,999,23032,.26403E-3,.12E-5,0
ONEWEB-0364,2021-090M,2026-06-17T01:13:44.518080,13.20771420,.0002006,87.9193,274.4742,101.5252,258.6107,0,U,49290,999,23142,.11422E-3,.59E-6,0
ONEWEB-0365,2021-090N,2026-06-17T09:56:23.246880,13.19724707,.0001809,87.9177,304.9211,101.1626,258.9710,0,U,49291,999,22645,.16041E-3,.77E-6,0
ONEWEB-0366,2021-090P,2026-06-17T08:38:04.164288,13.14502858,.0001955,87.8965,289.6720,100.4070,259.7280,0,U,49292,999,22758,-.31401E-3,-.104E-5,0
ONEWEB-0367,2021-090Q,2026-06-17T07:33:08.758080,13.20771827,.0001919,87.9196,274.4148,105.6601,254.4744,0,U,49293,999,22984,.34441E-3,.153E-5,0
